{
    "links": {
        "self": "http://www.neowsapp.com/rest/v1/neo/3653305?api_key=iIulBulltgU6a56xZRHN4H3l9WmuAYTsLGpBGhQ2"
    },
    "id": "3653305",
    "neo_reference_id": "3653305",
    "name": "(2013 UQ8)",
    "designation": "2013 UQ8",
    "nasa_jpl_url": "http://ssd.jpl.nasa.gov/sbdb.cgi?sstr=3653305",
    "absolute_magnitude_h": 25.6,
    "estimated_diameter": {
        "kilometers": {
            "estimated_diameter_min": 0.0201629919,
            "estimated_diameter_max": 0.0450858206
        },
        "meters": {
            "estimated_diameter_min": 20.1629919443,
            "estimated_diameter_max": 45.0858206172
        },
        "miles": {
            "estimated_diameter_min": 0.0125286985,
            "estimated_diameter_max": 0.0280150214
        },
        "feet": {
            "estimated_diameter_min": 66.1515504905,
            "estimated_diameter_max": 147.9193637137
        }
    },
    "is_potentially_hazardous_asteroid": false,
    "close_approach_data": [
        {
            "close_approach_date": "2013-10-22",
            "close_approach_date_full": "2013-Oct-22 05:36",
            "epoch_date_close_approach": 1382420160000,
            "relative_velocity": {
                "kilometers_per_second": "11.0615494635",
                "kilometers_per_hour": "39821.578068551",
                "miles_per_hour": "24743.5799948727"
            },
            "miss_distance": {
                "astronomical": "0.0270381519",
                "lunar": "10.5178410891",
                "kilometers": "4044849.932976453",
                "miles": "2513353.2026149314"
            },
            "orbiting_body": "Earth"
        }
    ],
    "orbital_data": {
        "orbit_id": "6",
        "orbit_determination_date": "2017-04-06 08:43:56",
        "first_observation_date": "2013-10-28",
        "last_observation_date": "2013-11-02",
        "data_arc_in_days": 5,
        "observations_used": 34,
        "orbit_uncertainty": "8",
        "minimum_orbit_intersection": ".0051239",
        "jupiter_tisserand_invariant": "3.831",
        "epoch_osculation": "2456594.5",
        "eccentricity": ".5068529163964179",
        "semi_major_axis": "1.85752464175855",
        "inclination": ".4648694753163567",
        "ascending_node_longitude": "337.6840296537334",
        "orbital_period": "924.6988181155917",
        "perihelion_distance": ".9160328598050174",
        "perihelion_argument": "6.891393818877081",
        "aphelion_distance": "2.799016423712082",
        "perihelion_time": "2456554.617340569174",
        "mean_anomaly": "15.52695549493238",
        "mean_motion": ".3893159512560319",
        "equinox": "J2000",
        "orbit_class": {
            "orbit_class_type": "APO",
            "orbit_class_description": "Near-Earth asteroid orbits which cross the Earth’s orbit similar to that of 1862 Apollo",
            "orbit_class_range": "a (semi-major axis) > 1.0 AU; q (perihelion) < 1.017 AU"
        }
    },
    "is_sentry_object": false
}